OSCAR 7 (AO-7)          
1 07530U 74089B   18157.49124486 -.00000029  00000-0  96160-4 0  9991
2 07530 101.6861 124.9719 0012191 358.3291 110.3772 12.53632831993251
UOSAT 2 (UO-11)         
1 14781U 84021B   18157.54223370  .00000075  00000-0  15423-4 0  9995
2 14781  97.6499 194.2121 0009941 114.1107 246.1148 14.83008650821861
LUSAT (LO-19)           
1 20442U 90005G   18157.59859632 -.00000006  00000-0  14081-4 0  9990
2 20442  98.6096  96.1555 0011730 175.9275 184.2006 14.32897070482311
ITAMSAT (IO-26)         
1 22826U 93061D   18157.46490099  .00000014  00000-0  23148-4 0  9999
2 22826  98.8559 133.4254 0009209  14.8922 345.2529 14.30363244287977
RADIO ROSTO (RS-15)     
1 23439U 94085A   18157.58898083 -.00000035  00000-0  22528-3 0  9999
2 23439  64.8180   5.9745 0157517 183.9768 206.7607 11.27566984965375
JAS-2 (FO-29)           
1 24278U 96046B   18157.50818007 -.00000023  00000-0  94784-5 0  9992
2 24278  98.5185 357.7378 0351078 138.5136 224.3231 13.53084059 76549
TECHSAT 1B (GO-32)      
1 25397U 98043D   18157.41896359 -.00000009  00000-0  15077-4 0  9991
2 25397  98.6492  98.0360 0002329  68.8679 291.2748 14.23646498 33974
ISS (ZARYA)             
1 25544U 98067A   18157.45700231  .00001583  00000-0  31142-4 0  9996
2 25544  51.6425  72.2029 0003664 156.6541 176.8005 15.54141440116840
PCSAT (NO-44)           
1 26931U 01043C   18157.44797052 -.00000049  00000-0  13013-4 0  9995
2 26931  67.0518 257.1188 0007740 276.0946  83.9273 14.30506999870940
SAUDISAT 1C (SO-50)     
1 27607U 02058C   18157.29966543  .00000018  00000-0  23289-4 0  9990
2 27607  64.5542 123.3139 0064130 330.7507  29.0010 14.75454161831227
CUTE-1 (CO-55)          
1 27844U 03031E   18157.47506163  .00000048  00000-0  41552-4 0  9999
2 27844  98.6865 166.2895 0010716  47.9203 312.2885 14.22116055774639
CUBESAT XI-IV (CO-57)   
1 27848U 03031J   18157.43141146  .00000041  00000-0  38373-4 0  9995
2 27848  98.6951 166.6410 0010735  57.5320 302.6893 14.21719787774502
MOZHAYETS 4 (RS-22)     
1 27939U 03042A   18157.60125090  .00000104  00000-0  27212-4 0  9997
2 27939  97.9891 297.0098 0013079 176.1660 243.5217 14.66691096785122
CUBESAT XI-V (CO-58)    
1 28895U 05043F   18157.40583481  .00000137  00000-0  35103-4 0  9996
2 28895  97.9079 309.2990 0018275 102.9142 257.4103 14.63550678672067
CUTE-1.7+APD II (CO-65) 
1 32785U 08021C   18157.49110190  .00000231  00000-0  30708-4 0  9991
2 32785  97.5472 170.1799 0014709  75.9235 284.3617 14.88125672547514
DELFI-C3 (DO-64)        
1 32789U 08021G   18157.41520009  .00001287  00000-0  92212-4 0  9991
2 32789  97.5130 212.4975 0011607 342.7486  17.3345 15.06064900550065
SEEDS II (CO-66)        
1 32791U 08021J   18157.46296745  .00000431  00000-0  49365-4 0  9997
2 32791  97.5363 175.4880 0014812  58.1991 302.0668 14.90557700547839
YUBILEINY (RS-30)       
1 32953U 08025A   18157.57629745  .00000017  00000-0  52589-4 0  9995
2 32953  82.5041  19.2808 0018213 232.0243 127.9192 12.43083227455459
KKS-1 (KISEKI)          
1 33499U 09002H   18157.59871717  .00000127  00000-0  26865-4 0  9997
2 33499  98.3561 339.0218 0008562 334.1534  25.9245 14.75332722503193
SWISSCUBE               
1 35932U 09051B   18157.37357673  .00000148  00000-0  44459-4 0  9993
2 35932  98.5440 308.2751 0006603 237.7832 122.2726 14.56163071461824
BEESAT                  
1 35933U 09051C   18157.47028007  .00000117  00000-0  37424-4 0  9991
2 35933  98.5480 309.9151 0004673 251.8495 108.2193 14.56266606461907
ITUPSAT 1               
1 35935U 09051E   18157.38149601  .00000113  00000-0  37144-4 0  9992
2 35935  98.5595 310.0773 0007008 248.1234 111.9217 14.55443469461725
XIWANG-1 (HOPE-1)       
1 36122U 09072B   18157.52382655 -.00000022  00000-0  51556-4 0  9991
2 36122 100.0755 172.6578 0008068 133.4354 226.7432 13.16344833407143
JUGNU                   
1 37839U 11058B   18157.19628233  .00000287  00000-0  11050-4 0  9999
2 37839  19.9609 103.8924 0019145 125.6605   5.4601 14.12620575343816
SRMSAT                  
1 37841U 11058D   18157.34300084  .00000294  00000-0  16635-4 0  9992
2 37841  19.9705 151.9840 0011862  12.6483 129.5114 14.10607680343349
M-CUBED & EXP-1 PRIME   
1 37855U 11061F   18157.43364219  .00002055  00000-0  11193-3 0  9991
2 37855 101.7161 214.4686 0176728 114.1147 247.8660 15.04420591359560
STRAND-1                
1 39090U 13009E   18157.51166412  .00000030  00000-0  25999-4 0  9993
2 39090  98.5229   4.0360 0008720 336.6599  23.4189 14.35027772276278
SOMP                    
1 39134U 13015E   18157.40387206  .00001011  00000-0  57340-4 0  9998
2 39134  64.8622 161.7907 0013203 213.8624 146.1662 15.19153788282888
BEESAT-3                
1 39135U 13015F   18157.40806247  .00000638  00000-0  42378-4 0  9999
2 39135  64.8670 174.9956 0022183 236.7378 123.1623 15.16666133283017
BEESAT-2                
1 39136U 13015G   18157.43998129  .00000635  00000-0  42787-4 0  9995
2 39136  64.8682 177.6479 0022504 238.9280 120.9636 15.16137140282574
ZACUBE-1 (TSHEPISOSAT)  
1 39417U 13066B   18157.50402157  .00000176  00000-0  28604-4 0  9994
2 39417  97.5877 186.7136 0058887 188.6452 171.3753 14.80936637245219
GOMX 1                  
1 39430U 13066Q   18157.60565440  .00000222  00000-0  49228-4 0  9992
2 39430  97.6968 135.2410 0151779   4.5613 355.6930 14.59080442241422
EAGLE 2                 
1 39436U 13066W   18138.34627707  .08053685  26553-5  29454-2 0  9995
2 39436  97.7009 274.5525 0018818 286.4398 133.6699 16.24208076248686
CUBEBUG-2 (LO-74)       
1 39440U 13066AA  18157.49482640  .00000189  00000-0  33567-4 0  9991
2 39440  97.6015 173.3666 0079265 229.5385 129.8897 14.75673320243141
FUNCUBE-1 (AO-73)       
1 39444U 13066AE  18157.50559242  .00000257  00000-0  38079-4 0  9999
2 39444  97.5885 188.2267 0058158 184.0196 176.0559 14.81715231243485
UWE-3                   
1 39446U 13066AG  18157.53592914  .00000209  00000-0  34529-4 0  9990
2 39446  97.5931 179.6808 0069446 209.3950 150.3348 14.78207141243545
SPROUT                  
1 39770U 14029E   18157.48957490  .00000764  00000-0  91799-4 0  9996
2 39770  97.8770 258.6252 0007657 237.9774 122.0695 14.86845340218773
UNISAT-6                
1 40012U 14033C   18157.62299810  .00000154  00000-0  30628-4 0  9990
2 40012  97.8098  34.2866 0057210 232.6189 126.9803 14.73820701213148
DUCHIFAT-1              
1 40021U 14033M   18157.24874025  .00000452  00000-0  52406-4 0  9994
2 40021  97.9165  75.9477 0012021 209.2232 150.8314 14.90306959215322
FUNCUBE-3 (EO-79)       
1 40025U 14033R   18157.59495825  .00000235  00000-0  31180-4 0  9998
2 40025  97.9059  73.0149 0011502 214.8779 145.1685 14.88714824214704
NUDT-PHONESAT           
1 40900U 15049B   18157.51824141  .00001950  00000-0  90110-4 0  9990
2 40900  97.4410 165.8936 0015257  69.8049 290.4826 15.21291188150290
ZDPS 2A                 
1 40901U 15049C   18157.52440548  .00000889  00000-0  48142-4 0  9995
2 40901  97.4585 164.0378 0015475  76.6358 283.6600 15.17079251150043
ZDPS 2B                 
1 40902U 15049D   18157.56263349  .00000825  00000-0  45181-4 0  9992
2 40902  97.4485 162.1154 0015522  73.9659 286.3282 15.16873671150033
XW-2A                   
1 40903U 15049E   18157.52397249  .00001840  00000-0  47351-4 0  9995
2 40903  97.3848 192.2729 0015917  71.6554 288.6422 15.40470653152162
KAITUO 1A               
1 40904U 15049F   18157.45656838  .00000484  00000-0  29375-4 0  9999
2 40904  97.4588 161.2424 0016534  76.6446  80.9966 15.15015688149879
2015-049G               
1 40905U 15049G   18157.57456772  .00000400  00000-0  25556-4 0  9993
2 40905  97.4585 159.4498 0017438  69.8422 290.4684 15.13969511149819
XW-2C                   
1 40906U 15049H   18157.55379505  .00000639  00000-0  37453-4 0  9993
2 40906  97.4596 161.2403 0016692  69.2502 291.0517 15.15185274149880
XW-2D                   
1 40907U 15049J   18157.57334062  .00000703  00000-0  40698-4 0  9992
2 40907  97.4570 160.9575 0016025  67.4065 292.8861 15.15335944149896
LILACSAT 2              
1 40908U 15049K   18157.56713167  .00000363  00000-0  23808-4 0  9995
2 40908  97.4683 160.3240 0017660  68.6992 291.6123 15.13508258149765
XW-2F                   
1 40910U 15049M   18157.53029448  .00001081  00000-0  58721-4 0  9997
2 40910  97.4572 162.2109 0016727  63.5222 296.7725 15.16524655149961
XW-2B                   
1 40911U 15049N   18157.52441935  .00000689  00000-0  40027-4 0  9999
2 40911  97.4606 161.4433 0015945  68.0574 292.2352 15.15279807149784
KAITUO 1B               
1 40912U 15049P   18157.54779350  .00001705  00000-0  85087-4 0  9992
2 40912  97.4505 165.0265 0016885  52.3430  46.5299 15.18744472150057
TIANWANG 1C (TW-1C)     
1 40926U 15051B   18157.48508443  .00010189  00000-0  19025-3 0  9990
2 40926  97.1839 199.8782 0008620 324.7614 142.6951 15.48921562151656
TIANWANG 1A (TW-1A)     
1 40928U 15051D   18157.48405852  .00003366  00000-0  90035-4 0  9992
2 40928  97.1858 191.6845 0012034  10.0450 127.3718 15.38676183151135
LAPAN-A2 (IO-86)        
1 40931U 15052B   18156.71086476  .00000687  00000-0  66198-5 0  9996
2 40931   5.9966 231.9956 0013532 208.5415 151.4103 14.76577053145301
E-ST@R-II               
1 41459U 16025D   18157.40340038  .00001216  00000-0  67587-4 0  9998
2 41459  98.1346 219.5225 0171113 184.0840 175.8991 15.04349032115807
AAUSAT 4                
1 41460U 16025E   18157.45871489  .00003166  00000-0  16640-3 0  9993
2 41460  98.1297 220.0635 0162606 180.0000 180.1259 15.05775837115877
NUSAT 1 (LO-87)         
1 41557U 16033B   18157.23595405  .00001392  00000-0  53658-4 0  9996
2 41557  97.4375 241.4739 0014031 195.6318 164.4490 15.27976535112485
BEESAT-4                
1 41619U 16040W   18157.41907201  .00001380  00000-0  63261-4 0  9992
2 41619  97.4156 220.7144 0009879 267.6773  92.3332 15.22098369 96457
ALSAT 1N                
1 41789U 16059G   18157.43378018  .00000119  00000-0  31693-4 0  9993
2 41789  98.1195 220.3683 0029620 119.9463 240.4691 14.64157247 90444
CAS-2T & KS-1Q          
1 41847U 16066G   18157.53412227  .00000025  00000-0  15334-4 0  9998
2 41847  98.7505 186.2098 0365072 276.1677  79.8043 14.37895068 82791
NAYIF-1 (EO-88)         
1 42017U 17008BX  18157.59392059  .00001525  00000-0  65083-4 0  9993
2 42017  97.4487 222.7139 0007944  65.1071 295.0991 15.24416868 72453
LILACSAT-1              
1 42725U 98067ME  18157.53879690  .00019455  00000-0  17019-3 0  9994
2 42725  51.6365  52.3927 0004541 174.3778 185.7271 15.68919568 58863
MAX VALIER SAT          
1 42778U 17036P   18157.59089098  .00001069  00000-0  50789-4 0  9994
2 42778  97.4040 217.4795 0014444 105.5150 254.7682 15.21289919 52898
FOX-1B (AO-91)          
1 43017U 17073E   18157.58446193  .00000562  00000-0  50343-4 0  9997
2 43017  97.7071  89.1557 0258590 306.3811  51.3791 14.78074911 29542
FOX-1D (AO-92)          
1 43137U 18004AC  18157.45232426  .00001092  00000-0  49923-4 0  9994
2 43137  97.5341 220.1235 0010811 131.9139 228.3020 15.22690889 22081
